start=new Date('2023-03-30T00:00:00.000Z').valueOf();
sats=[{"CLASSIFICATION_TYPE":"U","NORAD_CAT_ID":"55480","MEAN_MOTION_DOT":"-0.00903875","TLE_LINE2":"2 55480  42.9987  61.4041 0001309 267.4643 134.0603 15.13457965  1301","GP_ID":"229142358","BSTAR":"-0.05359900000000","TIME_SYSTEM":"UTC","EPOCH":"2023-03-29T22:00:00.999936","SITE":"AFETR","PERIAPSIS":"524.762","INCLINATION":"42.9987","EPHEMERIS_TYPE":"0","MEAN_MOTION":"15.13457965","PERIOD":"95.146","TLE_LINE1":"1 55480U 23015AH  23088.91667824 -.00903875  00000-0 -53599-1 0  9993","SEMIMAJOR_AXIS":"6903.801","REF_FRAME":"TEME","ARG_OF_PERICENTER":"267.4643","REV_AT_EPOCH":"130","OBJECT_NAME":"STARLINK-5690","MEAN_MOTION_DDOT":"0.0000000000000","ELEMENT_SET_NO":"999","OBJECT_TYPE":"PAYLOAD","APOAPSIS":"526.570","LAUNCH_DATE":"2023-02-02","RCS_SIZE":"LARGE","FILE":"3874790","RA_OF_ASC_NODE":"61.4041","OBJECT_ID":"2023-015AH","MEAN_ELEMENT_THEORY":"SGP4","ECCENTRICITY":"0.00013090","COUNTRY_CODE":"US","DECAY_DATE":null,"CENTER_NAME":"EARTH","MEAN_ANOMALY":"134.0603"},{"CENTER_NAME":"EARTH","MEAN_ANOMALY":"98.7689","COUNTRY_CODE":"US","DECAY_DATE":null,"ECCENTRICITY":"0.00016510","RCS_SIZE":"LARGE","FILE":"3874790","RA_OF_ASC_NODE":"65.1979","OBJECT_ID":"2023-015AJ","MEAN_ELEMENT_THEORY":"SGP4","ELEMENT_SET_NO":"999","OBJECT_TYPE":"PAYLOAD","APOAPSIS":"554.227","LAUNCH_DATE":"2023-02-02","MEAN_MOTION_DDOT":"0.0000000000000","OBJECT_NAME":"STARLINK-5694","REV_AT_EPOCH":"876","SEMIMAJOR_AXIS":"6931.218","ARG_OF_PERICENTER":"261.2967","REF_FRAME":"TEME","TLE_LINE1":"1 55481U 23015AJ  23088.83422152  .00004250  00000-0  31306-3 0  9999","PERIOD":"95.714","PERIAPSIS":"551.939","INCLINATION":"43.0010","EPHEMERIS_TYPE":"0","MEAN_MOTION":"15.04486930","SITE":"AFETR","TIME_SYSTEM":"UTC","EPOCH":"2023-03-29T20:01:16.739328","NORAD_CAT_ID":"55481","TLE_LINE2":"2 55481  43.0010  65.1979 0001651 261.2967  98.7689 15.04486930  8764","GP_ID":"229140612","BSTAR":"0.00031306000000","MEAN_MOTION_DOT":"0.00004250","CLASSIFICATION_TYPE":"U"},{"EPOCH":"2023-03-29T22:45:12.371904","TIME_SYSTEM":"UTC","NORAD_CAT_ID":"55482","TLE_LINE2":"2 55482  43.0006  64.3302 0001358 273.7166  86.3521 15.04491071  8786","MEAN_MOTION_DOT":"0.00003844","GP_ID":"229141361","BSTAR":"0.00028454000000","CLASSIFICATION_TYPE":"U","TLE_LINE1":"1 55482U 23015AK  23088.94805986  .00003844  00000-0  28454-3 0  9990","PERIOD":"95.713","INCLINATION":"43.0006","PERIAPSIS":"552.129","MEAN_MOTION":"15.04491071","EPHEMERIS_TYPE":"0","SITE":"AFETR","OBJECT_TYPE":"PAYLOAD","ELEMENT_SET_NO":"999","LAUNCH_DATE":"2023-02-02","APOAPSIS":"554.012","MEAN_MOTION_DDOT":"0.0000000000000","OBJECT_NAME":"STARLINK-5693","REV_AT_EPOCH":"878","SEMIMAJOR_AXIS":"6931.205","ARG_OF_PERICENTER":"273.7166","REF_FRAME":"TEME","CENTER_NAME":"EARTH","MEAN_ANOMALY":"86.3521","COUNTRY_CODE":"US","DECAY_DATE":null,"ECCENTRICITY":"0.00013580","FILE":"3874790","RCS_SIZE":"LARGE","OBJECT_ID":"2023-015AK","RA_OF_ASC_NODE":"64.3302","MEAN_ELEMENT_THEORY":"SGP4"},{"FILE":"3874790","RCS_SIZE":"LARGE","RA_OF_ASC_NODE":"65.1010","MEAN_ELEMENT_THEORY":"SGP4","OBJECT_ID":"2023-015AL","ECCENTRICITY":"0.00010000","COUNTRY_CODE":"US","DECAY_DATE":null,"CENTER_NAME":"EARTH","MEAN_ANOMALY":"100.4467","SEMIMAJOR_AXIS":"6931.310","REF_FRAME":"TEME","ARG_OF_PERICENTER":"259.6263","REV_AT_EPOCH":"876","OBJECT_NAME":"STARLINK-5692","MEAN_MOTION_DDOT":"0.0000000000000","OBJECT_TYPE":"PAYLOAD","ELEMENT_SET_NO":"999","APOAPSIS":"553.868","LAUNCH_DATE":"2023-02-02","SITE":"AFETR","INCLINATION":"43.0020","PERIAPSIS":"552.481","MEAN_MOTION":"15.04457121","EPHEMERIS_TYPE":"0","PERIOD":"95.716","TLE_LINE1":"1 55483U 23015AL  23088.82147532 -.00002760  00000-0 -17959-3 0  9990","CLASSIFICATION_TYPE":"U","NORAD_CAT_ID":"55483","TLE_LINE2":"2 55483  43.0020  65.1010 0001000 259.6263 100.4467 15.04457121  8766","MEAN_MOTION_DOT":"-0.00002760","GP_ID":"229142113","BSTAR":"-0.00017959000000","EPOCH":"2023-03-29T19:42:55.467648","TIME_SYSTEM":"UTC"},{"CLASSIFICATION_TYPE":"U","GP_ID":"229141859","TLE_LINE2":"2 55484  43.0018  65.0650 0001103 257.8706 102.2013 15.04476509  8767","MEAN_MOTION_DOT":"-0.00001264","BSTAR":"-0.00007427800000","NORAD_CAT_ID":"55484","EPOCH":"2023-03-29T19:36:08.207424","TIME_SYSTEM":"UTC","SITE":"AFETR","MEAN_MOTION":"15.04476509","EPHEMERIS_TYPE":"0","INCLINATION":"43.0018","PERIAPSIS":"552.351","PERIOD":"95.714","TLE_LINE1":"1 55484U 23015AM  23088.81676166 -.00001264  00000-0 -74278-4 0  9996","ARG_OF_PERICENTER":"257.8706","REF_FRAME":"TEME","SEMIMAJOR_AXIS":"6931.250","REV_AT_EPOCH":"876","OBJECT_NAME":"STARLINK-5696","MEAN_MOTION_DDOT":"0.0000000000000","LAUNCH_DATE":"2023-02-02","APOAPSIS":"553.880","OBJECT_TYPE":"PAYLOAD","ELEMENT_SET_NO":"999","OBJECT_ID":"2023-015AM","RA_OF_ASC_NODE":"65.0650","MEAN_ELEMENT_THEORY":"SGP4","FILE":"3874790","RCS_SIZE":"LARGE","ECCENTRICITY":"0.00011030","DECAY_DATE":null,"COUNTRY_CODE":"US","MEAN_ANOMALY":"102.2013","CENTER_NAME":"EARTH"},{"RA_OF_ASC_NODE":"65.1130","OBJECT_ID":"2023-015AN","MEAN_ELEMENT_THEORY":"SGP4","FILE":"3874790","RCS_SIZE":"LARGE","ECCENTRICITY":"0.00007370","DECAY_DATE":null,"COUNTRY_CODE":"US","MEAN_ANOMALY":"103.6111","CENTER_NAME":"EARTH","REF_FRAME":"TEME","ARG_OF_PERICENTER":"256.4650","SEMIMAJOR_AXIS":"6931.194","REV_AT_EPOCH":"876","OBJECT_NAME":"STARLINK-5695","MEAN_MOTION_DDOT":"0.0000000000000","APOAPSIS":"553.570","LAUNCH_DATE":"2023-02-02","OBJECT_TYPE":"PAYLOAD","ELEMENT_SET_NO":"999","SITE":"AFETR","MEAN_MOTION":"15.04494610","EPHEMERIS_TYPE":"0","INCLINATION":"43.0019","PERIAPSIS":"552.549","PERIOD":"95.713","TLE_LINE1":"1 55485U 23015AN  23088.82298886  .00002313  00000-0  17700-3 0  9997","CLASSIFICATION_TYPE":"U","MEAN_MOTION_DOT":"0.00002313","TLE_LINE2":"2 55485  43.0019  65.1130 0000737 256.4650 103.6111 15.04494610  8765","GP_ID":"229141112","BSTAR":"0.00017700000000","NORAD_CAT_ID":"55485","EPOCH":"2023-03-29T19:45:06.237504","TIME_SYSTEM":"UTC"},{"ECCENTRICITY":"0.00012050","RCS_SIZE":"LARGE","FILE":"3874790","RA_OF_ASC_NODE":"62.5810","MEAN_ELEMENT_THEORY":"SGP4","OBJECT_ID":"2023-015AP","CENTER_NAME":"EARTH","MEAN_ANOMALY":"13.8289","COUNTRY_CODE":"US","DECAY_DATE":null,"OBJECT_NAME":"STARLINK-5704","REV_AT_EPOCH":"130","SEMIMAJOR_AXIS":"6919.478","ARG_OF_PERICENTER":"259.2305","REF_FRAME":"TEME","ELEMENT_SET_NO":"999","OBJECT_TYPE":"PAYLOAD","LAUNCH_DATE":"2023-02-02","APOAPSIS":"542.177","MEAN_MOTION_DDOT":"0.0000000000000","PERIAPSIS":"540.510","INCLINATION":"42.9990","EPHEMERIS_TYPE":"0","MEAN_MOTION":"15.08317340","SITE":"AFETR","TLE_LINE1":"1 55486U 23015AP  23088.91667824 -.00899821  00000-0 -61562-1 0  9993","PERIOD":"95.471","CLASSIFICATION_TYPE":"U","TIME_SYSTEM":"UTC","EPOCH":"2023-03-29T22:00:00.999936","NORAD_CAT_ID":"55486","TLE_LINE2":"2 55486  42.9990  62.5810 0001205 259.2305  13.8289 15.08317340  1306","GP_ID":"229140862","BSTAR":"-0.06156200000000","MEAN_MOTION_DOT":"-0.00899821"},{"CLASSIFICATION_TYPE":"U","TIME_SYSTEM":"UTC","EPOCH":"2023-03-29T19:53:38.148000","NORAD_CAT_ID":"55487","TLE_LINE2":"2 55487  43.0020  65.1577 0000915 265.7139  94.3599 15.04486019  8767","MEAN_MOTION_DOT":"-0.00001770","GP_ID":"229141614","BSTAR":"-0.00010982000000","PERIAPSIS":"552.452","INCLINATION":"43.0020","EPHEMERIS_TYPE":"0","MEAN_MOTION":"15.04486019","SITE":"AFETR","TLE_LINE1":"1 55487U 23015AQ  23088.82891375 -.00001770  00000-0 -10982-3 0  9994","PERIOD":"95.714","REV_AT_EPOCH":"876","OBJECT_NAME":"STARLINK-5701","SEMIMAJOR_AXIS":"6931.221","ARG_OF_PERICENTER":"265.7139","REF_FRAME":"TEME","ELEMENT_SET_NO":"999","OBJECT_TYPE":"PAYLOAD","APOAPSIS":"553.720","LAUNCH_DATE":"2023-02-02","MEAN_MOTION_DDOT":"0.0000000000000","ECCENTRICITY":"0.00009150","RCS_SIZE":"LARGE","FILE":"3874790","MEAN_ELEMENT_THEORY":"SGP4","RA_OF_ASC_NODE":"65.1577","OBJECT_ID":"2023-015AQ","CENTER_NAME":"EARTH","MEAN_ANOMALY":"94.3599","COUNTRY_CODE":"US","DECAY_DATE":null},{"PERIAPSIS":"558.425","INCLINATION":"43.0010","EPHEMERIS_TYPE":"0","MEAN_MOTION":"15.02510825","SITE":"AFETR","TLE_LINE1":"1 55488U 23015AR  23088.86187533 -.00004221  00000-0 -29777-3 0  9999","PERIOD":"95.840","CLASSIFICATION_TYPE":"U","TIME_SYSTEM":"UTC","EPOCH":"2023-03-29T20:41:06.028512","NORAD_CAT_ID":"55488","MEAN_MOTION_DOT":"-0.00004221","TLE_LINE2":"2 55488  43.0010  64.5427 0001058 276.0694  84.0028 15.02510825  8779","GP_ID":"229142359","BSTAR":"-0.00029777000000","ECCENTRICITY":"0.00010580","RCS_SIZE":"LARGE","FILE":"3874790","MEAN_ELEMENT_THEORY":"SGP4","RA_OF_ASC_NODE":"64.5427","OBJECT_ID":"2023-015AR","CENTER_NAME":"EARTH","MEAN_ANOMALY":"84.0028","COUNTRY_CODE":"US","DECAY_DATE":null,"REV_AT_EPOCH":"877","OBJECT_NAME":"STARLINK-5706","SEMIMAJOR_AXIS":"6937.294","ARG_OF_PERICENTER":"276.0694","REF_FRAME":"TEME","ELEMENT_SET_NO":"999","OBJECT_TYPE":"PAYLOAD","APOAPSIS":"559.893","LAUNCH_DATE":"2023-02-02","MEAN_MOTION_DDOT":"0.0000000000000"},{"MEAN_ANOMALY":"99.1834","CENTER_NAME":"EARTH","DECAY_DATE":null,"COUNTRY_CODE":"US","ECCENTRICITY":"0.00010380","RA_OF_ASC_NODE":"65.0957","MEAN_ELEMENT_THEORY":"SGP4","OBJECT_ID":"2023-015AS","FILE":"3874790","RCS_SIZE":"LARGE","LAUNCH_DATE":"2023-02-02","APOAPSIS":"553.802","OBJECT_TYPE":"PAYLOAD","ELEMENT_SET_NO":"999","MEAN_MOTION_DDOT":"0.0000000000000","REV_AT_EPOCH":"876","OBJECT_NAME":"STARLINK-5371","REF_FRAME":"TEME","ARG_OF_PERICENTER":"260.8892","SEMIMAJOR_AXIS":"6931.217","TLE_LINE1":"1 55489U 23015AS  23088.82069413 -.00001271  00000-0 -74751-4 0  9997","PERIOD":"95.714","MEAN_MOTION":"15.04487131","EPHEMERIS_TYPE":"0","INCLINATION":"43.0018","PERIAPSIS":"552.363","SITE":"AFETR","EPOCH":"2023-03-29T19:41:47.972832","TIME_SYSTEM":"UTC","GP_ID":"229140613","TLE_LINE2":"2 55489  43.0018  65.0957 0001038 260.8892  99.1834 15.04487131  8767","BSTAR":"-0.00007475100000","MEAN_MOTION_DOT":"-0.00001271","NORAD_CAT_ID":"55489","CLASSIFICATION_TYPE":"U"}];
